CCSDS_OMM_VERS,COMMENT,CREATION_DATE,ORIGINATOR,OBJECT_NAME,OBJECT_ID,CENTER_NAME,REF_FRAME,TIME_SYSTEM,MEAN_ELEMENT_THEORY,EPOCH,MEAN_MOTION,ECCENTRICITY,INCLINATION,RA_OF_ASC_NODE,ARG_OF_PERICENTER,MEAN_ANOMALY,EPHEMERIS_TYPE,CLASSIFICATION_TYPE,NORAD_CAT_ID,ELEMENT_SET_NO,REV_AT_EPOCH,BSTAR,MEAN_MOTION_DOT,MEAN_MOTION_DDOT,SEMIMAJOR_AXIS,PERIOD,APOAPSIS,PERIAPSIS,OBJECT_TYPE,RCS_SIZE,COUNTRY_CODE,LAUNCH_DATE,SITE,DECAY_DATE,FILE,GP_ID,TLE_LINE0,TLE_LINE1,TLE_LINE2
2,GENERATED VIA SPACE-TRACK.ORG API,2023-06-13T22:26:12,18 SPCS,KSF3-C,2023-001K,EARTH,TEME,UTC,SGP4,2023-06-13T17:49:28.427232,15.16804944,0.0010692,97.4775,224.3374,36.129,324.0664,0,U,55018,999,2454,0.00055631,0.00010888,0,6893.641,94.936,522.877,508.136,PAYLOAD,MEDIUM,LUXE,2023-01-03,AFETR,,3932189,233846112,0 KSF3-C,1 55018U 23001K   23164.74269013  .00010888  00000-0  55631-3 0  9991,2 55018  97.4775 224.3374 0010692  36.1290 324.0664 15.16804944 24546
2,GENERATED VIA SPACE-TRACK.ORG API,2023-06-14T02:42:48,18 SPCS,KSF3-C,2023-001K,EARTH,TEME,UTC,SGP4,2023-06-13T20:59:28.018176,15.16807587,0.0010676,97.4775,224.4676,35.6646,324.5298,0,U,55018,999,2456,0.00055144,0.00010792,0,6893.633,94.936,522.858,508.139,PAYLOAD,MEDIUM,LUXE,2023-01-03,AFETR,,3932371,233874812,0 KSF3-C,1 55018U 23001K   23164.87462984  .00010792  00000-0  55144-3 0  9990,2 55018  97.4775 224.4676 0010676  35.6646 324.5298 15.16807587 24569
2,GENERATED VIA SPACE-TRACK.ORG API,2023-06-14T06:36:12,18 SPCS,KSF3-C,2023-001K,EARTH,TEME,UTC,SGP4,2023-06-14T00:09:27.589248,15.16810681,0.0010645,97.4775,224.5977,35.239,324.9545,0,U,55018,999,2458,0.00055907,0.00010944,0,6893.624,94.936,522.827,508.151,PAYLOAD,MEDIUM,LUXE,2023-01-03,AFETR,,3932451,233879056,0 KSF3-C,1 55018U 23001K   23165.00656932  .00010944  00000-0  55907-3 0  9990,2 55018  97.4775 224.5977 0010645  35.2390 324.9545 15.16810681 24582
2,GENERATED VIA SPACE-TRACK.ORG API,2023-06-14T14:26:12,18 SPCS,KSF3-C,2023-001K,EARTH,TEME,UTC,SGP4,2023-06-14T09:39:26.177184,15.16818686,0.0010608,97.4774,224.9881,33.7293,326.4613,0,U,55018,999,2464,0.00054287,0.00010627,0,6893.6,94.936,522.777,508.152,PAYLOAD,MEDIUM,LUXE,2023-01-03,AFETR,,3932743,233886484,0 KSF3-C,1 55018U 23001K   23165.40238631  .00010627  00000-0  54287-3 0  9994,2 55018  97.4774 224.9881 0010608  33.7293 326.4613 15.16818686 24646
2,GENERATED VIA SPACE-TRACK.ORG API,2023-06-14T19:36:57,18 SPCS,KSF3-C,2023-001K,EARTH,TEME,UTC,SGP4,2023-06-14T12:49:25.686912,15.16820089,0.0010573,97.4774,225.1182,33.2323,326.9573,0,U,55018,999,2466,0.00049264,9.636e-05,0,6893.595,94.935,522.749,508.172,PAYLOAD,MEDIUM,LUXE,2023-01-03,AFETR,,3932965,233916899,0 KSF3-C,1 55018U 23001K   23165.53432508  .00009636  00000-0  49264-3 0  9994,2 55018  97.4774 225.1182 0010573  33.2323 326.9573 15.16820089 24665
2,GENERATED VIA SPACE-TRACK.ORG API,2023-06-14T22:26:11,18 SPCS,KSF3-C,2023-001K,EARTH,TEME,UTC,SGP4,2023-06-14T17:34:24.880224,15.1682508,0.0010549,97.4774,225.3134,32.4963,327.6917,0,U,55018,999,2469,0.00051957,0.00010169,0,6893.58,94.935,522.717,508.173,PAYLOAD,MEDIUM,LUXE,2023-01-03,AFETR,,3933034,233919930,0 KSF3-C,1 55018U 23001K   23165.73223241  .00010169  00000-0  51957-3 0  9993,2 55018  97.4774 225.3134 0010549  32.4963 327.6917 15.16825080 24697
2,GENERATED VIA SPACE-TRACK.ORG API,2023-06-15T02:48:46,18 SPCS,KSF3-C,2023-001K,EARTH,TEME,UTC,SGP4,2023-06-14T19:09:24.598368,15.1682625,0.0010537,97.4774,225.3785,32.2529,327.9347,0,U,55018,999,2470,0.00051177,0.00010015,0,6893.577,94.935,522.706,508.178,PAYLOAD,MEDIUM,LUXE,2023-01-03,AFETR,,3933215,233950027,0 KSF3-C,1 55018U 23001K   23165.79820137  .00010015  00000-0  51177-3 0  9990,2 55018  97.4774 225.3785 0010537  32.2529 327.9347 15.16826250 24704
2,GENERATED VIA SPACE-TRACK.ORG API,2023-06-15T06:36:12,18 SPCS,KSF3-C,2023-001K,EARTH,TEME,UTC,SGP4,2023-06-15T03:04:23.158848,15.16832694,0.00105,97.4774,225.7038,31.0977,329.0876,0,U,55018,999,2475,0.00050222,9.828e-05,0,6893.557,94.935,522.66,508.184,PAYLOAD,MEDIUM,LUXE,2023-01-03,AFETR,,3933293,233952491,0 KSF3-C,1 55018U 23001K   23166.12804582  .00009828  00000-0  50222-3 0  9994,2 55018  97.4774 225.7038 0010500  31.0977 329.0876 15.16832694 24757
2,GENERATED VIA SPACE-TRACK.ORG API,2023-06-15T14:26:12,18 SPCS,KSF3-C,2023-001K,EARTH,TEME,UTC,SGP4,2023-06-15T09:24:21.895776,15.16837906,0.0010486,97.4774,225.9641,30.0972,330.0861,0,U,55018,999,2479,0.00051144,0.00010012,0,6893.541,94.934,522.635,508.178,PAYLOAD,MEDIUM,LUXE,2023-01-03,AFETR,,3933601,233959723,0 KSF3-C,1 55018U 23001K   23166.39192009  .00010012  00000-0  51144-3 0  9998,2 55018  97.4774 225.9641 0010486  30.0972 330.0861 15.16837906 24797
2,GENERATED VIA SPACE-TRACK.ORG API,2023-06-15T17:31:36,18 SPCS,KSF3-C,2023-001K,EARTH,TEME,UTC,SGP4,2023-06-15T10:59:21.566400,15.1684032,0.0010478,97.4774,226.0291,29.8686,330.3143,0,U,55018,999,2480,0.00055812,0.00010934,0,6893.534,94.934,522.622,508.176,PAYLOAD,MEDIUM,LUXE,2023-01-03,AFETR,,3933820,233990432,0 KSF3-C,1 55018U 23001K   23166.45788850  .00010934  00000-0  55812-3 0  9999,2 55018  97.4774 226.0291 0010478  29.8686 330.3143 15.16840320 24801
2,GENERATED VIA SPACE-TRACK.ORG API,2023-06-16T02:12:41,18 SPCS,KSF3-C,2023-001K,EARTH,TEME,UTC,SGP4,2023-06-15T17:19:20.208288,15.16846313,0.0010451,97.4774,226.2894,28.967,331.2141,0,U,55018,999,2484,0.00056887,0.00011148,0,6893.516,94.934,522.585,508.177,PAYLOAD,MEDIUM,LUXE,2023-01-03,AFETR,,3934071,234024392,0 KSF3-C,1 55018U 23001K   23166.72176167  .00011148  00000-0  56887-3 0  9992,2 55018  97.4774 226.2894 0010451  28.9670 331.2141 15.16846313 24846
2,GENERATED VIA SPACE-TRACK.ORG API,2023-06-15T22:26:13,18 SPCS,KSF3-C,2023-001K,EARTH,TEME,UTC,SGP4,2023-06-15T17:19:20.208288,15.16846313,0.0010451,97.4774,226.2894,28.967,331.2141,0,U,55018,999,2484,0.00056887,0.00011148,0,6893.516,94.934,522.585,508.177,PAYLOAD,MEDIUM,LUXE,2023-01-03,AFETR,,3933885,233993800,0 KSF3-C,1 55018U 23001K   23166.72176167  .00011148  00000-0  56887-3 0  9992,2 55018  97.4774 226.2894 0010451  28.9670 331.2141 15.16846313 24846
2,GENERATED VIA SPACE-TRACK.ORG API,2023-06-16T06:26:11,18 SPCS,KSF3-C,2023-001K,EARTH,TEME,UTC,SGP4,2023-06-16T02:49:17.936544,15.16858656,0.0010417,97.4774,226.6799,27.6467,332.5318,0,U,55018,999,2490,0.00068396,0.00013426,0,6893.479,94.933,522.525,508.163,PAYLOAD,MEDIUM,LUXE,2023-01-03,AFETR,,3934140,234026492,0 KSF3-C,1 55018U 23001K   23167.11756871  .00013426  00000-0  68396-3 0  9991,2 55018  97.4774 226.6799 0010417  27.6467 332.5318 15.16858656 24906
2,GENERATED VIA SPACE-TRACK.ORG API,2023-06-16T14:26:12,18 SPCS,KSF3-C,2023-001K,EARTH,TEME,UTC,SGP4,2023-06-16T09:09:16.258752,15.16868626,0.0010399,97.4774,226.9401,26.7306,333.4461,0,U,55018,999,2494,0.0008175,0.0001607,0,6893.448,94.932,522.482,508.145,PAYLOAD,MEDIUM,LUXE,2023-01-03,AFETR,,3934423,234033204,0 KSF3-C,1 55018U 23001K   23167.38143818  .00016070  00000-0  81750-3 0  9998,2 55018  97.4774 226.9401 0010399  26.7306 333.4461 15.16868626 24941
2,GENERATED VIA SPACE-TRACK.ORG API,2023-06-16T20:29:05,18 SPCS,KSF3-C,2023-001K,EARTH,TEME,UTC,SGP4,2023-06-16T10:44:15.819648,15.16870382,0.001039,97.4774,227.0052,26.5446,333.6317,0,U,55018,999,2495,0.00080907,0.00015904,0,6893.443,94.932,522.47,508.146,PAYLOAD,MEDIUM,LUXE,2023-01-03,AFETR,,3934686,234065472,0 KSF3-C,1 55018U 23001K   23167.44740532  .00015904  00000-0  80907-3 0  9999,2 55018  97.4774 227.0052 0010390  26.5446 333.6317 15.16870382 24954
2,GENERATED VIA SPACE-TRACK.ORG API,2023-06-16T22:26:12,18 SPCS,KSF3-C,2023-001K,EARTH,TEME,UTC,SGP4,2023-06-16T15:29:14.448768,15.1687697,0.0010371,97.4774,227.2004,25.8987,334.2763,0,U,55018,999,2498,0.00080812,0.00015888,0,6893.423,94.932,522.437,508.139,PAYLOAD,MEDIUM,LUXE,2023-01-03,AFETR,,3934737,234068225,0 KSF3-C,1 55018U 23001K   23167.64530612  .00015888  00000-0  80812-3 0  9993,2 55018  97.4774 227.2004 0010371  25.8987 334.2763 15.16876970 24988
2,GENERATED VIA SPACE-TRACK.ORG API,2023-06-17T02:08:10,18 SPCS,KSF3-C,2023-001K,EARTH,TEME,UTC,SGP4,2023-06-16T18:39:13.473792,15.16880964,0.0010353,97.4774,227.3306,25.4815,334.6927,0,U,55018,999,2500,0.000784,0.00015413,0,6893.411,94.932,522.413,508.139,PAYLOAD,MEDIUM,LUXE,2023-01-03,AFETR,,3934949,234098104,0 KSF3-C,1 55018U 23001K   23167.77723928  .00015413  00000-0  78400-3 0  9995,2 55018  97.4774 227.3306 0010353  25.4815 334.6927 15.16880964 25008
2,GENERATED VIA SPACE-TRACK.ORG API,2023-06-17T06:36:12,18 SPCS,KSF3-C,2023-001K,EARTH,TEME,UTC,SGP4,2023-06-17T00:59:11.476320,15.16888441,0.0010326,97.4774,227.5909,24.6664,335.5061,0,U,55018,999,2504,0.0007362,0.0001447,0,6893.388,94.931,522.371,508.135,PAYLOAD,MEDIUM,LUXE,2023-01-03,AFETR,,3935021,234101101,0 KSF3-C,1 55018U 23001K   23168.04110505  .00014470  00000-0  73620-3 0  9998,2 55018  97.4774 227.5909 0010326  24.6664 335.5061 15.16888441 25043
2,GENERATED VIA SPACE-TRACK.ORG API,2023-06-17T14:26:12,18 SPCS,KSF3-C,2023-001K,EARTH,TEME,UTC,SGP4,2023-06-17T10:29:08.271456,15.16897869,0.0010312,97.4773,227.9813,23.4391,336.731,0,U,55018,999,2510,0.00062466,0.00012267,0,6893.36,94.931,522.333,508.116,PAYLOAD,MEDIUM,LUXE,2023-01-03,AFETR,,3935362,234109004,0 KSF3-C,1 55018U 23001K   23168.43690129  .00012267  00000-0  62466-3 0  9994,2 55018  97.4773 227.9813 0010312  23.4391 336.7310 15.16897869 25100
2,GENERATED VIA SPACE-TRACK.ORG API,2023-06-17T17:40:33,18 SPCS,KSF3-C,2023-001K,EARTH,TEME,UTC,SGP4,2023-06-17T12:04:07.707936,15.16900047,0.0010299,97.4773,228.0464,23.2145,336.9551,0,U,55018,999,2511,0.00062584,0.00012291,0,6893.353,94.93,522.318,508.119,PAYLOAD,MEDIUM,LUXE,2023-01-03,AFETR,,3935591,234141013,0 KSF3-C,1 55018U 23001K   23168.50286699  .00012291  00000-0  62584-3 0  9993,2 55018  97.4773 228.0464 0010299  23.2145 336.9551 15.16900047 25116
